STARLINK-36730          
1 67874U 26034AA  26065.61587168  .00220659  00000+0  10889-2 0  9999
2 67874  53.1599 226.5480 0001065  38.2588 321.8510 15.80959028  3458
STARLINK-36727          
1 67875U 26034AB  26065.61512221  .00160117  00000+0  79749-3 0  9991
2 67875  53.1599 226.5421 0001134  43.3168 316.7944 15.80936279  3459
STARLINK-36743          
1 67876U 26034AC  26065.61437071  .00265576  00000+0  13019-2 0  9993
2 67876  53.1604 226.5366 0000688  36.7156 323.3914 15.80976647  3455
STARLINK-36784          
1 67877U 26034AD  26065.61362237  .00245114  00000+0  12054-2 0  9999
2 67877  53.1602 226.5316 0000757  42.8637 317.2445 15.80963738  3456
STARLINK-36689          
1 67878U 26034AE  26065.61287324  .00234373  00000+0  11544-2 0  9991
2 67878  53.1601 226.5273 0001042  70.8977 289.2158 15.80960307  3452
STARLINK-36818          
1 67879U 26035A   26065.58334491 -.01019395  32009-3 -27227-2 0  9998
2 67879  97.2757 357.6832 0001142  99.3072 302.8198 15.94524516  3251
STARLINK-36821          
1 67880U 26035B   26065.58334491 -.01081616  35787-3 -28661-2 0  9994
2 67880  97.2751 357.6864 0001200  95.3540 314.2690 15.94683377  3258
STARLINK-36808          
1 67881U 26035C   26065.58334491 -.01033406  32857-3 -27491-2 0  9994
2 67881  97.2752 357.6845 0001091  87.3800 317.6995 15.94602457  3252
STARLINK-36817          
1 67882U 26035D   26065.58334491 -.01156871  40591-3 -30460-2 0  9991
2 67882  97.2740 357.6896 0001135  88.2223 330.3326 15.94814216  3252
STARLINK-36856          
1 67883U 26035E   26065.58334491 -.01137729  39333-3 -30042-2 0  9991
2 67883  97.2746 357.6882 0001170  94.3315 320.0201 15.94757704  3259
STARLINK-36842          
1 67884U 26035F   26065.58334491 -.01164890  41139-3 -30578-2 0  9992
2 67884  97.2741 357.6914 0001193  83.9457 338.5621 15.94872740  3255
STARLINK-36826          
1 67885U 26035G   26065.58334491 -.01164067  41112-3 -30452-2 0  9991
2 67885  97.2739 357.6927 0001199  94.8203 330.9404 15.94936719  3255
STARLINK-36390          
1 67886U 26035H   26065.58334491 -.01170376  41545-3 -30547-2 0  9997
2 67886  97.2734 357.6946 0001190  91.8360 338.6303 15.94981264  3308
STARLINK-36368          
1 67887U 26035J   26065.58334491 -.01177994  42068-3 -30669-2 0  9997
2 67887  97.2732 357.6964 0001166  89.5685 345.3898 15.95029004  3258
STARLINK-36801          
1 67888U 26035K   26065.58334491 -.01183198  42436-3 -30719-2 0  9996
2 67888  97.2729 357.6982 0001215  91.9694 347.3281 15.95082168  3255
STARLINK-36372          
1 67889U 26035L   26065.58334491 -.01191071  43010-3 -30745-2 0  9994
2 67889  97.2722 357.7014 0001226  87.8149 359.8470 15.95191715  3254
